[{"OBJECT_NAME":"YAOGAN-43 01D","OBJECT_ID":"2024-148D","EPOCH":"2026-03-09T10:27:16.254720","MEAN_MOTION":15.28369377,"ECCENTRICITY":0.00025569,"INCLINATION":35.001,"RA_OF_ASC_NODE":61.7102,"ARG_OF_PERICENTER":326.2473,"MEAN_ANOMALY":33.808,"EPHEMERIS_TYPE":0,"CLASSIFICATION_TYPE":"U","NORAD_CAT_ID":60461,"ELEMENT_SET_NO":999,"REV_AT_EPOCH":8700,"BSTAR":0.00037765912,"MEAN_MOTION_DOT":0.00010676,"MEAN_MOTION_DDOT":0},{"OBJECT_NAME":"STARLINK-35391","OBJECT_ID":"2025-270AE","EPOCH":"2026-03-09T22:55:30.056736","MEAN_MOTION":15.27597344,"ECCENTRICITY":0.00012095,"INCLINATION":43.002,"RA_OF_ASC_NODE":54.9184,"ARG_OF_PERICENTER":183.6538,"MEAN_ANOMALY":176.4305,"EPHEMERIS_TYPE":0,"CLASSIFICATION_TYPE":"U","NORAD_CAT_ID":66616,"ELEMENT_SET_NO":999,"REV_AT_EPOCH":1785,"BSTAR":0.0012332792,"MEAN_MOTION_DOT":0.00033849,"MEAN_MOTION_DDOT":0}]
